TIANMU-1 08             
1 57400U 23101B   26066.00237819  .00000346  00000+0  14775-4 0  9993
2 57400  97.2717 118.7901 0006380 134.2174 225.9592 15.29204229146020
STARLINK-36482          
1 67309U 26002E   26068.06261436  .00043047  00000+0  15648-2 0  9998
2 67309  43.0008 328.7520 0001360 281.0534  79.0165 15.27577953 10989
